{
  "type": "FeatureCollection",
  "features": [
    {
      "type": "Feature",
      "properties": {
        "norad_id": 34750,
        "name": "COSMOS 2251 DEB",
        "group": "cosmos-2251-debris",
        "lat": 20.47940331334349,
        "lon": 14.545899169660775,
        "alt_km": 661.1809448301592,
        "timestamp": "2025-12-13T07:35:41.899734+00:00",
        "meta_object_name": "COSMOS 2251 DEB",
        "meta_object_id": "1993-036ZU",
        "meta_epoch": "2025-12-12T18:16:50.437632",
        "meta_mean_motion": 14.61323696,
        "meta_eccentricity": 0.00388342,
        "meta_inclination": 74.1085,
        "meta_ra_of_asc_node": 201.7093,
        "meta_arg_of_pericenter": 154.7653,
        "meta_mean_anomaly": 326.4831,
        "meta_ephemeris_type": 0,
        "meta_classification_type": "U",
        "meta_norad_cat_id": 34750,
        "meta_element_set_no": 999,
        "meta_rev_at_epoch": 88231,
        "meta_bstar": 0.0015269949,
        "meta_mean_motion_dot": 7.603e-05,
        "meta_mean_motion_ddot": 0,
        "tle_line1": "1 34750U 93036ZU  25346.76169488  .00007603  00000+0  15270-2 0  9991",
        "tle_line2": "2 34750  74.1085 201.7093 0038834 154.7653 326.4831 14.61323696882315"
      },
      "geometry": {
        "type": "Point",
        "coordinates": [
          14.545899169660775,
          20.47940331334349
        ]
      }
    },
    {
      "type": "Feature",
      "properties": {
        "norad_id": 34752,
        "name": "COSMOS 2251 DEB",
        "group": "cosmos-2251-debris",
        "lat": 18.166715974462683,
        "lon": 4.829702314289669,
        "alt_km": 577.6158480083795,
        "timestamp": "2025-12-13T07:35:41.899743+00:00",
        "meta_object_name": "COSMOS 2251 DEB",
        "meta_object_id": "1993-036ZW",
        "meta_epoch": "2025-12-12T18:42:16.112160",
        "meta_mean_motion": 14.99929065,
        "meta_eccentricity": 0.00477814,
        "meta_inclination": 74.0137,
        "meta_ra_of_asc_node": 0.5243,
        "meta_arg_of_pericenter": 128.9856,
        "meta_mean_anomaly": 231.5602,
        "meta_ephemeris_type": 0,
        "meta_classification_type": "U",
        "meta_norad_cat_id": 34752,
        "meta_element_set_no": 999,
        "meta_rev_at_epoch": 89850,
        "meta_bstar": 0.0012905698,
        "meta_mean_motion_dot": 0.00016411,
        "meta_mean_motion_ddot": 0,
        "tle_line1": "1 34752U 93036ZW  25346.77935315  .00016411  00000+0  12906-2 0  9994",
        "tle_line2": "2 34752  74.0137   0.5243 0047781 128.9856 231.5602 14.99929065898508"
      },
      "geometry": {
        "type": "Point",
        "coordinates": [
          4.829702314289669,
          18.166715974462683
        ]
      }
    },
    {
      "type": "Feature",
      "properties": {
        "norad_id": 34754,
        "name": "COSMOS 2251 DEB",
        "group": "cosmos-2251-debris",
        "lat": -47.27098947560055,
        "lon": 64.59597636501393,
        "alt_km": 771.4584988891738,
        "timestamp": "2025-12-13T07:35:41.899752+00:00",
        "meta_object_name": "COSMOS 2251 DEB",
        "meta_object_id": "1993-036ZY",
        "meta_epoch": "2025-12-12T19:23:10.948704",
        "meta_mean_motion": 14.40481938,
        "meta_eccentricity": 0.00295669,
        "meta_inclination": 74.0302,
        "meta_ra_of_asc_node": 227.4767,
        "meta_arg_of_pericenter": 343.5565,
        "meta_mean_anomaly": 129.6269,
        "meta_ephemeris_type": 0,
        "meta_classification_type": "U",
        "meta_norad_cat_id": 34754,
        "meta_element_set_no": 999,
        "meta_rev_at_epoch": 88134,
        "meta_bstar": 0.00032285849,
        "meta_mean_motion_dot": 1.006e-05,
        "meta_mean_motion_ddot": 0,
        "tle_line1": "1 34754U 93036ZY  25346.80776561  .00001006  00000+0  32286-3 0  9994",
        "tle_line2": "2 34754  74.0302 227.4767 0029566 343.5565 129.6269 14.40481938881346"
      },
      "geometry": {
        "type": "Point",
        "coordinates": [
          64.59597636501393,
          -47.27098947560055
        ]
      }
    },
    {
      "type": "Feature",
      "properties": {
        "norad_id": 34755,
        "name": "COSMOS 2251 DEB",
        "group": "cosmos-2251-debris",
        "lat": 28.523822925137285,
        "lon": 100.08290440979691,
        "alt_km": 1350.1060399821308,
        "timestamp": "2025-12-13T07:35:41.899761+00:00",
        "meta_object_name": "COSMOS 2251 DEB",
        "meta_object_id": "1993-036ZZ",
        "meta_epoch": "2025-12-12T13:37:24.158208",
        "meta_mean_motion": 13.50558708,
        "meta_eccentricity": 0.04082885,
        "meta_inclination": 73.9258,
        "meta_ra_of_asc_node": 290.3013,
        "meta_arg_of_pericenter": 310.1509,
        "meta_mean_anomaly": 162.2918,
        "meta_ephemeris_type": 0,
        "meta_classification_type": "U",
        "meta_norad_cat_id": 34755,
        "meta_element_set_no": 999,
        "meta_rev_at_epoch": 82521,
        "meta_bstar": 0.0021769945,
        "meta_mean_motion_dot": 2.326e-05,
        "meta_mean_motion_ddot": 0,
        "tle_line1": "1 34755U 93036ZZ  25346.56764072  .00002326  00000+0  21770-2 0  9993",
        "tle_line2": "2 34755  73.9258 290.3013 0408288 310.1509 162.2918 13.50558708825216"
      },
      "geometry": {
        "type": "Point",
        "coordinates": [
          100.08290440979691,
          28.523822925137285
        ]
      }
    },
    {
      "type": "Feature",
      "properties": {
        "norad_id": 34756,
        "name": "COSMOS 2251 DEB",
        "group": "cosmos-2251-debris",
        "lat": 72.91275983641079,
        "lon": -145.52140993161328,
        "alt_km": 1110.456714127421,
        "timestamp": "2025-12-13T07:35:41.899770+00:00",
        "meta_object_name": "COSMOS 2251 DEB",
        "meta_object_id": "1993-036AAA",
        "meta_epoch": "2025-12-11T14:45:00.607104",
        "meta_mean_motion": 13.67238778,
        "meta_eccentricity": 0.03449804,
        "meta_inclination": 74.0026,
        "meta_ra_of_asc_node": 106.2197,
        "meta_arg_of_pericenter": 342.2771,
        "meta_mean_anomaly": 16.6544,
        "meta_ephemeris_type": 0,
        "meta_classification_type": "U",
        "meta_norad_cat_id": 34756,
        "meta_element_set_no": 999,
        "meta_rev_at_epoch": 83406,
        "meta_bstar": 0.0012772103,
        "meta_mean_motion_dot": 1.595e-05,
        "meta_mean_motion_ddot": 0,
        "tle_line1": "1 34756U 93036AAA 25345.61459036  .00001595  00000+0  12772-2 0  9999",
        "tle_line2": "2 34756  74.0026 106.2197 0344980 342.2771  16.6544 13.67238778834065"
      },
      "geometry": {
        "type": "Point",
        "coordinates": [
          -145.52140993161328,
          72.91275983641079
        ]
      }
    },
    {
      "type": "Feature",
      "properties": {
        "norad_id": 34758,
        "name": "COSMOS 2251 DEB",
        "group": "cosmos-2251-debris",
        "lat": -9.254297273796691,
        "lon": 121.22940889054803,
        "alt_km": 1211.0881612119556,
        "timestamp": "2025-12-13T07:35:41.899779+00:00",
        "meta_object_name": "COSMOS 2251 DEB",
        "meta_object_id": "1993-036AAC",
        "meta_epoch": "2025-12-12T21:51:41.899968",
        "meta_mean_motion": 13.58068869,
        "meta_eccentricity": 0.03812519,
        "meta_inclination": 74.1074,
        "meta_ra_of_asc_node": 299.2213,
        "meta_arg_of_pericenter": 62.9041,
        "meta_mean_anomaly": 301.0425,
        "meta_ephemeris_type": 0,
        "meta_classification_type": "U",
        "meta_norad_cat_id": 34758,
        "meta_element_set_no": 999,
        "meta_rev_at_epoch": 82912,
        "meta_bstar": 0.0018803076,
        "meta_mean_motion_dot": 2.168e-05,
        "meta_mean_motion_ddot": 0,
        "tle_line1": "1 34758U 93036AAC 25346.91090162  .00002168  00000+0  18803-2 0  9994",
        "tle_line2": "2 34758  74.1074 299.2213 0381251  62.9041 301.0425 13.58068869829123"
      },
      "geometry": {
        "type": "Point",
        "coordinates": [
          121.22940889054803,
          -9.254297273796691
        ]
      }
    },
    {
      "type": "Feature",
      "properties": {
        "norad_id": 34760,
        "name": "COSMOS 2251 DEB",
        "group": "cosmos-2251-debris",
        "lat": -22.402141792439046,
        "lon": 128.09551688329475,
        "alt_km": 892.0298770914951,
        "timestamp": "2025-12-13T07:35:41.899788+00:00",
        "meta_object_name": "COSMOS 2251 DEB",
        "meta_object_id": "1993-036AAE",
        "meta_epoch": "2025-12-11T20:57:04.029120",
        "meta_mean_motion": 14.19565488,
        "meta_eccentricity": 0.0096741,
        "meta_inclination": 74.0637,
        "meta_ra_of_asc_node": 303.9064,
        "meta_arg_of_pericenter": 356.2172,
        "meta_mean_anomaly": 33.6085,
        "meta_ephemeris_type": 0,
        "meta_classification_type": "U",
        "meta_norad_cat_id": 34760,
        "meta_element_set_no": 999,
        "meta_rev_at_epoch": 86676,
        "meta_bstar": 0.0010971,
        "meta_mean_motion_dot": 2.4e-05,
        "meta_mean_motion_ddot": 0,
        "tle_line1": "1 34760U 93036AAE 25345.87296330  .00002400  00000+0  10971-2 0  9993",
        "tle_line2": "2 34760  74.0637 303.9064 0096741 356.2172  33.6085 14.19565488866766"
      },
      "geometry": {
        "type": "Point",
        "coordinates": [
          128.09551688329475,
          -22.402141792439046
        ]
      }
    }
  ]
}